ONEWEB-0053             
1 45157U 20008AC  23237.49799340 -.00000614  00000+0 -17946-2 0  9995
2 45157  87.8803 240.1814 0001791  87.8518 272.2815 13.10369746173450
ONEWEB-0054             
1 45158U 20008AD  23237.53300981  .00000631  00000+0  17718-2 0  9994
2 45158  87.8806 240.1612 0001983  88.8579 271.2775 13.10374871173573
ONEWEB-0056             
1 45159U 20008AE  23237.51390222 -.00000250  00000+0 -75364-3 0  9991
2 45159  87.8806 240.1601 0001779  86.4126 273.7205 13.10377317173727
ONEWEB-0057             
1 45160U 20008AF  23237.52027633  .00000138  00000+0  35924-3 0  9998
2 45160  87.8809 240.1514 0001855  97.0468 263.0870 13.10379487174380
ONEWEB-0058             
1 45161U 20008AG  23237.50755322 -.00000481  00000+0 -14129-2 0  9996
2 45161  87.8812 240.1979 0001951  88.0231 272.1120 13.10374166173966
ONEWEB-0059             
1 45162U 20008AH  23237.50435957 -.00000521  00000+0 -15275-2 0  9994
2 45162  87.8805 240.1729 0002031  89.9510 270.1850 13.10375756173865
ONEWEB-0062             
1 45163U 20008AJ  23237.53143460  .00000649  00000+0  18233-2 0  9999
2 45163  87.8805 240.1551 0001923  86.7172 273.4175 13.10375314173739
ONEWEB-0065             
1 45164U 20008AK  23237.50912861 -.00000448  00000+0 -13204-2 0  9998
2 45164  87.8812 240.1535 0001810  89.1281 271.0053 13.10375298173429
